[{"OBJECT_NAME":"STARLINK-5516","OBJECT_ID":"2023-094AM","EPOCH":"2026-03-09T22:00:01.999584","MEAN_MOTION":15.05511241,"ECCENTRICITY":0.00020084,"INCLINATION":43.0006,"RA_OF_ASC_NODE":16.2517,"ARG_OF_PERICENTER":243.6792,"MEAN_ANOMALY":65.2221,"EPHEMERIS_TYPE":0,"CLASSIFICATION_TYPE":"U","NORAD_CAT_ID":57253,"ELEMENT_SET_NO":999,"REV_AT_EPOCH":577,"BSTAR":0.0022825999,"MEAN_MOTION_DOT":0.00033336,"MEAN_MOTION_DDOT":0},{"OBJECT_NAME":"FENGYUN 1C DEB","OBJECT_ID":"1999-025CBV","EPOCH":"2026-03-08T13:20:44.308896","MEAN_MOTION":14.76950564,"ECCENTRICITY":0.01886082,"INCLINATION":98.8377,"RA_OF_ASC_NODE":348.5578,"ARG_OF_PERICENTER":327.9291,"MEAN_ANOMALY":31.055,"EPHEMERIS_TYPE":0,"CLASSIFICATION_TYPE":"U","NORAD_CAT_ID":31663,"ELEMENT_SET_NO":999,"REV_AT_EPOCH":540,"BSTAR":0.00053050003,"MEAN_MOTION_DOT":4.94e-5,"MEAN_MOTION_DDOT":0}]
